FENGYUN 1C DEB          
1 30997U 99025BCP 17345.08231838  .00001113  00000-0  31702-3 0  9998
2 30997  99.0377 202.6657 0066836 194.5625 319.0529 14.46202044562261
